[
    {
        "CCSDS_OMM_VERS": "3.0",
        "COMMENT": "GENERATED VIA SPACE-TRACK.ORG API",
        "CREATION_DATE": "2025-05-04T02:26:54",
        "ORIGINATOR": "18 SPCS",
        "OBJECT_NAME": "BEIDOU IGSO-7",
        "OBJECT_ID": "2018-057A",
        "CENTER_NAME": "EARTH",
        "REF_FRAME": "TEME",
        "TIME_SYSTEM": "UTC",
        "MEAN_ELEMENT_THEORY": "SGP4",
        "EPOCH": "2025-05-03T16:56:59.484192",
        "MEAN_MOTION": "1.00270521",
        "ECCENTRICITY": "0.00886320",
        "INCLINATION": "55.1580",
        "RA_OF_ASC_NODE": "166.6054",
        "ARG_OF_PERICENTER": "236.2651",
        "MEAN_ANOMALY": "186.5395",
        "EPHEMERIS_TYPE": "0",
        "CLASSIFICATION_TYPE": "U",
        "NORAD_CAT_ID": "43539",
        "ELEMENT_SET_NO": "999",
        "REV_AT_EPOCH": "2502",
        "BSTAR": "0.00000000000000",
        "MEAN_MOTION_DOT": "-0.00000106",
        "MEAN_MOTION_DDOT": "0.0000000000000",
        "SEMIMAJOR_AXIS": "42165.086",
        "PERIOD": "1436.115",
        "APOAPSIS": "36160.669",
        "PERIAPSIS": "35413.234",
        "OBJECT_TYPE": "PAYLOAD",
        "RCS_SIZE": "LARGE",
        "COUNTRY_CODE": "PRC",
        "LAUNCH_DATE": "2018-07-09",
        "SITE": "XSC",
        "DECAY_DATE": null,
        "FILE": "4718307",
        "GP_ID": "286799696",
        "TLE_LINE0": "0 BEIDOU IGSO-7",
        "TLE_LINE1": "1 43539U 18057A   25123.70624403 -.00000106  00000-0  00000-0 0  9992",
        "TLE_LINE2": "2 43539  55.1580 166.6054 0088632 236.2651 186.5395  1.00270521 25024"
    }
]